<?xml version="1.0" encoding="UTF-8"?>
<ndm xmlns:xsi="http://www.w3.org/2001/XMLSchema-instance" xsi:noNamespaceSchemaLocation="https://sanaregistry.org/r/ndmxml_unqualified/ndmxml-2.0.0-master-2.0.xsd">
<omm id="CCSDS_OMM_VERS" version="2.0">
<header><CREATION_DATE/><ORIGINATOR/></header><body><segment><metadata><OBJECT_NAME>GLOBALSTAR M045</OBJECT_NAME><OBJECT_ID>1999-019A</OBJECT_ID><CENTER_NAME>EARTH</CENTER_NAME><REF_FRAME>TEME</REF_FRAME><TIME_SYSTEM>UTC</TIME_SYSTEM><MEAN_ELEMENT_THEORY>SGP4</MEAN_ELEMENT_THEORY></metadata><data><meanElements><EPOCH>2025-03-09T11:31:27.445728</EPOCH><MEAN_MOTION>12.27058403</MEAN_MOTION><ECCENTRICITY>.0001013</ECCENTRICITY><INCLINATION>51.9947</INCLINATION><RA_OF_ASC_NODE>229.4551</RA_OF_ASC_NODE><ARG_OF_PERICENTER>81.8346</ARG_OF_PERICENTER><MEAN_ANOMALY>341.1748</MEAN_ANOMALY></meanElements><tleParameters><EPHEMERIS_TYPE>0</EPHEMERIS_TYPE><CLASSIFICATION_TYPE>U</CLASSIFICATION_TYPE><NORAD_CAT_ID>25676</NORAD_CAT_ID><ELEMENT_SET_NO>999</ELEMENT_SET_NO><REV_AT_EPOCH>18115</REV_AT_EPOCH><BSTAR>.10283E-3</BSTAR><MEAN_MOTION_DOT>-.82E-6</MEAN_MOTION_DOT><MEAN_MOTION_DDOT>0</MEAN_MOTION_DDOT></tleParameters></data></segment></body></omm>
<omm id="CCSDS_OMM_VERS" version="2.0">
<header><CREATION_DATE/><ORIGINATOR/></header><body><segment><metadata><OBJECT_NAME>GLOBALSTAR M019</OBJECT_NAME><OBJECT_ID>1999-019B</OBJECT_ID><CENTER_NAME>EARTH</CENTER_NAME><REF_FRAME>TEME</REF_FRAME><TIME_SYSTEM>UTC</TIME_SYSTEM><MEAN_ELEMENT_THEORY>SGP4</MEAN_ELEMENT_THEORY></metadata><data><meanElements><EPOCH>2025-03-09T05:50:33.488160</EPOCH><MEAN_MOTION>12.13871643</MEAN_MOTION><ECCENTRICITY>.0001478</ECCENTRICITY><INCLINATION>51.9909</INCLINATION><RA_OF_ASC_NODE>353.4623</RA_OF_ASC_NODE><ARG_OF_PERICENTER>100.9795</ARG_OF_PERICENTER><MEAN_ANOMALY>65.3537</MEAN_ANOMALY></meanElements><tleParameters><EPHEMERIS_TYPE>0</EPHEMERIS_TYPE><CLASSIFICATION_TYPE>U</CLASSIFICATION_TYPE><NORAD_CAT_ID>25677</NORAD_CAT_ID><ELEMENT_SET_NO>999</ELEMENT_SET_NO><REV_AT_EPOCH>17300</REV_AT_EPOCH><BSTAR>-.12167E-2</BSTAR><MEAN_MOTION_DOT>-.207E-5</MEAN_MOTION_DOT><MEAN_MOTION_DDOT>0</MEAN_MOTION_DDOT></tleParameters></data></segment></body></omm>
<omm id="CCSDS_OMM_VERS" version="2.0">
<header><CREATION_DATE/><ORIGINATOR/></header><body><segment><metadata><OBJECT_NAME>GLOBALSTAR M044</OBJECT_NAME><OBJECT_ID>1999-019C</OBJECT_ID><CENTER_NAME>EARTH</CENTER_NAME><REF_FRAME>TEME</REF_FRAME><TIME_SYSTEM>UTC</TIME_SYSTEM><MEAN_ELEMENT_THEORY>SGP4</MEAN_ELEMENT_THEORY></metadata><data><meanElements><EPOCH>2025-03-09T13:44:24.247104</EPOCH><MEAN_MOTION>11.90246912</MEAN_MOTION><ECCENTRICITY>.0005899</ECCENTRICITY><INCLINATION>51.9965</INCLINATION><RA_OF_ASC_NODE>291.4499</RA_OF_ASC_NODE><ARG_OF_PERICENTER>201.9878</ARG_OF_PERICENTER><MEAN_ANOMALY>175.9011</MEAN_ANOMALY></meanElements><tleParameters><EPHEMERIS_TYPE>0</EPHEMERIS_TYPE><CLASSIFICATION_TYPE>U</CLASSIFICATION_TYPE><NORAD_CAT_ID>25678</NORAD_CAT_ID><ELEMENT_SET_NO>999</ELEMENT_SET_NO><REV_AT_EPOCH>15946</REV_AT_EPOCH><BSTAR>.45512E-3</BSTAR><MEAN_MOTION_DOT>-.51E-6</MEAN_MOTION_DOT><MEAN_MOTION_DDOT>0</MEAN_MOTION_DDOT></tleParameters></data></segment></body></omm>
<omm id="CCSDS_OMM_VERS" version="2.0">
<header><CREATION_DATE/><ORIGINATOR/></header><body><segment><metadata><OBJECT_NAME>GLOBALSTAR M042</OBJECT_NAME><OBJECT_ID>1999-019D</OBJECT_ID><CENTER_NAME>EARTH</CENTER_NAME><REF_FRAME>TEME</REF_FRAME><TIME_SYSTEM>UTC</TIME_SYSTEM><MEAN_ELEMENT_THEORY>SGP4</MEAN_ELEMENT_THEORY></metadata><data><meanElements><EPOCH>2025-03-09T03:16:07.882176</EPOCH><MEAN_MOTION>12.22079748</MEAN_MOTION><ECCENTRICITY>.0003474</ECCENTRICITY><INCLINATION>52.0040</INCLINATION><RA_OF_ASC_NODE>333.4023</RA_OF_ASC_NODE><ARG_OF_PERICENTER>88.4651</ARG_OF_PERICENTER><MEAN_ANOMALY>59.7230</MEAN_ANOMALY></meanElements><tleParameters><EPHEMERIS_TYPE>0</EPHEMERIS_TYPE><CLASSIFICATION_TYPE>U</CLASSIFICATION_TYPE><NORAD_CAT_ID>25679</NORAD_CAT_ID><ELEMENT_SET_NO>999</ELEMENT_SET_NO><REV_AT_EPOCH>17302</REV_AT_EPOCH><BSTAR>.48049E-3</BSTAR><MEAN_MOTION_DOT>-.41E-6</MEAN_MOTION_DOT><MEAN_MOTION_DDOT>0</MEAN_MOTION_DDOT></tleParameters></data></segment></body></omm>
<omm id="CCSDS_OMM_VERS" version="2.0">
<header><CREATION_DATE/><ORIGINATOR/></header><body><segment><metadata><OBJECT_NAME>GLOBALSTAR M025</OBJECT_NAME><OBJECT_ID>1999-031A</OBJECT_ID><CENTER_NAME>EARTH</CENTER_NAME><REF_FRAME>TEME</REF_FRAME><TIME_SYSTEM>UTC</TIME_SYSTEM><MEAN_ELEMENT_THEORY>SGP4</MEAN_ELEMENT_THEORY></metadata><data><meanElements><EPOCH>2025-03-09T08:02:11.916960</EPOCH><MEAN_MOTION>11.22559279</MEAN_MOTION><ECCENTRICITY>.0001548</ECCENTRICITY><INCLINATION>51.9847</INCLINATION><RA_OF_ASC_NODE>30.5837</RA_OF_ASC_NODE><ARG_OF_PERICENTER>349.6262</ARG_OF_PERICENTER><MEAN_ANOMALY>181.1587</MEAN_ANOMALY></meanElements><tleParameters><EPHEMERIS_TYPE>0</EPHEMERIS_TYPE><CLASSIFICATION_TYPE>U</CLASSIFICATION_TYPE><NORAD_CAT_ID>25770</NORAD_CAT_ID><ELEMENT_SET_NO>999</ELEMENT_SET_NO><REV_AT_EPOCH>47049</REV_AT_EPOCH><BSTAR>-.76829E-3</BSTAR><MEAN_MOTION_DOT>-.92E-6</MEAN_MOTION_DOT><MEAN_MOTION_DDOT>0</MEAN_MOTION_DDOT></tleParameters></data></segment></body></omm>
<omm id="CCSDS_OMM_VERS" version="2.0">
<header><CREATION_DATE/><ORIGINATOR/></header><body><segment><metadata><OBJECT_NAME>GLOBALSTAR M049</OBJECT_NAME><OBJECT_ID>1999-031B</OBJECT_ID><CENTER_NAME>EARTH</CENTER_NAME><REF_FRAME>TEME</REF_FRAME><TIME_SYSTEM>UTC</TIME_SYSTEM><MEAN_ELEMENT_THEORY>SGP4</MEAN_ELEMENT_THEORY></metadata><data><meanElements><EPOCH>2025-03-09T09:36:26.862624</EPOCH><MEAN_MOTION>11.12116111</MEAN_MOTION><ECCENTRICITY>.0003051</ECCENTRICITY><INCLINATION>51.9880</INCLINATION><RA_OF_ASC_NODE>60.1797</RA_OF_ASC_NODE><ARG_OF_PERICENTER>203.2437</ARG_OF_PERICENTER><MEAN_ANOMALY>156.8222</MEAN_ANOMALY></meanElements><tleParameters><EPHEMERIS_TYPE>0</EPHEMERIS_TYPE><CLASSIFICATION_TYPE>U</CLASSIFICATION_TYPE><NORAD_CAT_ID>25771</NORAD_CAT_ID><ELEMENT_SET_NO>999</ELEMENT_SET_NO><REV_AT_EPOCH>10632</REV_AT_EPOCH><BSTAR>.16949E-2</BSTAR><MEAN_MOTION_DOT>-.16E-6</MEAN_MOTION_DOT><MEAN_MOTION_DDOT>0</MEAN_MOTION_DDOT></tleParameters></data></segment></body></omm>
<omm id="CCSDS_OMM_VERS" version="2.0">
<header><CREATION_DATE/><ORIGINATOR/></header><body><segment><metadata><OBJECT_NAME>GLOBALSTAR M047</OBJECT_NAME><OBJECT_ID>1999-031C</OBJECT_ID><CENTER_NAME>EARTH</CENTER_NAME><REF_FRAME>TEME</REF_FRAME><TIME_SYSTEM>UTC</TIME_SYSTEM><MEAN_ELEMENT_THEORY>SGP4</MEAN_ELEMENT_THEORY></metadata><data><meanElements><EPOCH>2025-03-09T10:48:03.473280</EPOCH><MEAN_MOTION>11.31926195</MEAN_MOTION><ECCENTRICITY>.0016447</ECCENTRICITY><INCLINATION>51.9831</INCLINATION><RA_OF_ASC_NODE>66.5664</RA_OF_ASC_NODE><ARG_OF_PERICENTER>92.1001</ARG_OF_PERICENTER><MEAN_ANOMALY>268.1688</MEAN_ANOMALY></meanElements><tleParameters><EPHEMERIS_TYPE>0</EPHEMERIS_TYPE><CLASSIFICATION_TYPE>U</CLASSIFICATION_TYPE><NORAD_CAT_ID>25772</NORAD_CAT_ID><ELEMENT_SET_NO>999</ELEMENT_SET_NO><REV_AT_EPOCH>45981</REV_AT_EPOCH><BSTAR>.11646E-3</BSTAR><MEAN_MOTION_DOT>-.65E-6</MEAN_MOTION_DOT><MEAN_MOTION_DDOT>0</MEAN_MOTION_DDOT></tleParameters></data></segment></body></omm>
<omm id="CCSDS_OMM_VERS" version="2.0">
<header><CREATION_DATE/><ORIGINATOR/></header><body><segment><metadata><OBJECT_NAME>GLOBALSTAR M052</OBJECT_NAME><OBJECT_ID>1999-031D</OBJECT_ID><CENTER_NAME>EARTH</CENTER_NAME><REF_FRAME>TEME</REF_FRAME><TIME_SYSTEM>UTC</TIME_SYSTEM><MEAN_ELEMENT_THEORY>SGP4</MEAN_ELEMENT_THEORY></metadata><data><meanElements><EPOCH>2025-03-09T13:14:02.784768</EPOCH><MEAN_MOTION>11.15058483</MEAN_MOTION><ECCENTRICITY>.0002095</ECCENTRICITY><INCLINATION>51.9853</INCLINATION><RA_OF_ASC_NODE>169.9179</RA_OF_ASC_NODE><ARG_OF_PERICENTER>24.7712</ARG_OF_PERICENTER><MEAN_ANOMALY>69.0145</MEAN_ANOMALY></meanElements><tleParameters><EPHEMERIS_TYPE>0</EPHEMERIS_TYPE><CLASSIFICATION_TYPE>U</CLASSIFICATION_TYPE><NORAD_CAT_ID>25773</NORAD_CAT_ID><ELEMENT_SET_NO>999</ELEMENT_SET_NO><REV_AT_EPOCH>46739</REV_AT_EPOCH><BSTAR>.1073E-2</BSTAR><MEAN_MOTION_DOT>-.34E-6</MEAN_MOTION_DOT><MEAN_MOTION_DDOT>0</MEAN_MOTION_DDOT></tleParameters></data></segment></body></omm>

</ndm>
