GLOBALSTAR M045         
1 25676U 99019A   25068.48017877 -.00000082  00000+0  10283-3 0  9994
2 25676  51.9947 229.4551 0001013  81.8346 341.1748 12.27058403181152
GLOBALSTAR M019         
1 25677U 99019B   25068.24344315 -.00000207  00000+0 -12167-2 0  9991
2 25677  51.9909 353.4623 0001478 100.9795  65.3537 12.13871643173005
GLOBALSTAR M044         
1 25678U 99019C   25068.57250286 -.00000051  00000+0  45512-3 0  9998
2 25678  51.9965 291.4499 0005899 201.9878 175.9011 11.90246912159463
GLOBALSTAR M042         
1 25679U 99019D   25068.13620234 -.00000041  00000+0  48049-3 0  9992
2 25679  52.0040 333.4023 0003474  88.4651  59.7230 12.22079748173021
GLOBALSTAR M025         
1 25770U 99031A   25068.33486015 -.00000092  00000+0 -76829-3 0  9991
2 25770  51.9847  30.5837 0001548 349.6262 181.1587 11.22559279470491
GLOBALSTAR M049         
1 25771U 99031B   25068.40031091 -.00000016  00000+0  16949-2 0  9991
2 25771  51.9880  60.1797 0003051 203.2437 156.8222 11.12116111106329
GLOBALSTAR M047         
1 25772U 99031C   25068.45004020 -.00000065  00000+0  11646-3 0  9993
2 25772  51.9831  66.5664 0016447  92.1001 268.1688 11.31926195459814
GLOBALSTAR M052         
1 25773U 99031D   25068.55142112 -.00000034  00000+0  10730-2 0  9998
2 25773  51.9853 169.9179 0002095  24.7712  69.0145 11.15058483467398
